GLOBALSTAR M075         
1 37192U 10054E   25013.14067998 -.00000066  00000+0  21052-3 0  9992
2 37192  51.9958 293.6207 0000794  63.3772  85.6920 12.62271678656265
GLOBALSTAR M073         
1 37193U 10054F   25013.59096465 -.00000087  00000+0  93444-4 0  9991
2 37193  52.0030 205.9495 0001083  79.8050 315.7989 12.62262554658310
GLOBALSTAR M083         
1 37739U 11033A   25013.53631910 -.00000118  00000+0 -77572-4 0  9999
2 37739  51.9841 155.0569 0000789 108.5885 339.1696 12.62270650627327
GLOBALSTAR M088         
1 37740U 11033B   25013.60654932 -.00000078  00000+0  14156-3 0  9990
2 37740  51.9744  60.4646 0000378 138.3204  29.0265 12.62267336622875
GLOBALSTAR M091         
1 37741U 11033C   25013.45816904 -.00000084  00000+0  11097-3 0  9991
2 37741  52.0019  24.1961 0000160 192.0885 319.9909 12.62272657623645
GLOBALSTAR M085         
1 37742U 11033D   25013.28465058 -.00000085  00000+0  10351-3 0  9996
2 37742  51.9893 335.9002 0000219  40.4074 103.1335 12.62263836624134
GLOBALSTAR M081         
1 37743U 11033E   25013.47209809 -.00000095  00000+0  51378-4 0  9994
2 37743  51.9981 338.0186 0000460  15.8718 141.1534 12.62275231624303
GLOBALSTAR M089         
1 37744U 11033F   25013.26421461 -.00000063  00000+0  22813-3 0  9998
2 37744  51.9939 292.9119 0000960  57.4003  53.3647 12.62265041625123
